OBJECT_NAME,OBJECT_ID,EPOCH,MEAN_MOTION,ECCENTRICITY,INCLINATION,RA_OF_ASC_NODE,ARG_OF_PERICENTER,MEAN_ANOMALY,EPHEMERIS_TYPE,CLASSIFICATION_TYPE,NORAD_CAT_ID,ELEMENT_SET_NO,REV_AT_EPOCH,BSTAR,MEAN_MOTION_DOT,MEAN_MOTION_DDOT
STARLINK-37820,2026-126D,2026-06-22T14:36:20.535264,15.80079718,.00014536,97.2833,33.9204,85.0092,275.1342,0,U,69423,999,360,.1466222E-2,.280394E-2,0
STARLINK-37822,2026-126E,2026-06-21T08:11:44.716992,15.80613645,.00027411,97.2831,32.5828,339.9488,20.1672,0,U,69424,999,340,.21601669E-2,.430756E-2,0
STARLINK-37836,2026-126F,2026-06-22T13:04:37.655328,15.80086163,.00038382,97.2831,33.8556,77.1655,283.0041,0,U,69425,999,359,.15892795E-2,.30495E-2,0
STARLINK-37850,2026-126G,2026-06-22T05:27:20.481696,15.81770712,.00065176,97.2824,33.5207,340.1697,19.9317,0,U,69426,999,359,.30680006E-2,.662849E-2,0
STARLINK-37823,2026-126H,2026-06-22T17:47:11.612832,15.75209369,.0001221,97.2847,34.0462,109.1222,251.0176,0,U,69427,999,362,.11778172E-2,.179439E-2,0
STARLINK-37834,2026-126J,2026-06-22T17:59:23.517600,15.75231117,.00011874,97.2842,34.0356,92.9169,267.2232,0,U,69428,999,362,.10356615E-2,.157506E-2,0
STARLINK-37857,2026-126K,2026-06-22T08:29:14.603136,15.81219689,.00065149,97.2827,33.6541,17.9881,342.1617,0,U,69429,999,356,.47530775E-2,.1025795E-1,0
STARLINK-37866,2026-126L,2026-06-22T19:07:38.086176,15.80767853,.00006451,97.2864,34.1256,289.4833,70.6366,0,U,69430,999,368,.2410595E-2,.487348E-2,0
STARLINK-37555,2026-126M,2026-06-22T08:28:55.390368,15.80159052,.00014969,97.2841,33.6560,57.7501,302.3912,0,U,69431,999,361,-.16130484E-2,-.290253E-2,0
STARLINK-37870,2026-126N,2026-06-22T19:06:19.503648,15.80020940,.00006748,97.2837,34.1248,146.6187,213.5123,0,U,69432,999,363,.11629332E-2,.220231E-2,0
STARLINK-37872,2026-126P,2026-06-22T08:27:26.413056,15.81030413,.00050174,97.2840,33.6574,13.5930,346.5472,0,U,69433,999,356,.93718911E-2,.2104763E-1,0
STARLINK-37815,2026-126Q,2026-06-22T18:10:34.162176,15.75209563,.00012226,97.2838,34.0242,100.9963,259.1439,0,U,69434,999,362,.47659204E-3,.71615E-3,0
STARLINK-37801,2026-126R,2026-06-22T20:00:01.999872,15.75212854,.00012353,97.2849,34.1404,104.9318,45.9604,0,U,69435,999,369,-.45786665E-3,-.67949E-3,0
STARLINK-37800,2026-126S,2026-06-22T20:00:01.999872,15.75295412,.00014895,97.2847,34.1339,96.5816,42.2980,0,U,69436,999,364,-.16364473E-2,-.238626E-2,0
STARLINK-37792,2026-126T,2026-06-21T14:13:26.275008,15.79984608,.00009092,97.2830,32.8536,83.7893,276.3478,0,U,69437,999,349,.74348945E-3,.139201E-2,0
STARLINK-37783,2026-126U,2026-06-21T14:12:55.325664,15.79934098,.00008058,97.2827,32.8530,66.2699,293.8653,0,U,69438,999,349,.11079457E-2,.208708E-2,0
STARLINK-37771,2026-126V,2026-06-22T18:16:40.044576,15.75220942,.00005568,97.2831,34.0171,84.3399,275.7930,0,U,69439,999,362,.89486065E-3,.135665E-2,0
STARLINK-37747,2026-126W,2026-06-21T14:13:10.860384,15.79997131,.00019491,97.2830,32.8541,92.3302,267.8189,0,U,69440,999,344,.79145802E-3,.148441E-2,0
STARLINK-37629,2026-127A,2026-06-22T20:00:01.999872,15.75303838,.00009546,53.1591,234.3531,76.2943,325.5040,0,U,69443,999,354,-.1011696E-2,-.153372E-2,0
STARLINK-37509,2026-127B,2026-06-22T20:00:01.999872,15.75259386,.00010072,53.1593,234.3038,85.2109,340.4925,0,U,69444,999,354,-.60781342E-3,-.92874E-3,0
STARLINK-37641,2026-127C,2026-06-22T17:56:18.619872,15.80933194,.00014106,53.1586,234.6033,54.5766,305.5388,0,U,69445,999,228,.79970288E-3,.16055E-2,0
STARLINK-37522,2026-127D,2026-06-22T20:00:01.999872,15.75300076,.00011062,53.1595,234.2997,77.4347,350.1220,0,U,69446,999,354,-.10782032E-2,-.163201E-2,0
STARLINK-37640,2026-127E,2026-06-22T17:52:19.075872,15.80939007,.00014159,53.1583,234.5842,59.3538,300.7624,0,U,69447,999,228,.10738713E-2,.217328E-2,0
STARLINK-37572,2026-127F,2026-06-22T20:00:01.999872,15.75290973,.00010568,53.1596,234.1973,86.3196,30.8858,0,U,69448,999,355,-.99720541E-3,-.151141E-2,0
STARLINK-37643,2026-127G,2026-06-22T20:00:01.999872,15.75305844,.00012977,53.1596,234.2501,78.5113,12.9326,0,U,69449,999,355,-.11451818E-2,-.173147E-2,0
STARLINK-37601,2026-127H,2026-06-22T20:00:01.999872,15.75300161,.00010623,53.1597,234.2455,85.2806,8.0312,0,U,69450,999,355,-.10907765E-2,-.165061E-2,0
STARLINK-37578,2026-127J,2026-06-22T19:16:44.434848,15.76356782,.00092147,53.1583,234.2363,212.0694,147.9767,0,U,69451,999,229,-.29045675E-2,-.446376E-2,0
STARLINK-37577,2026-127K,2026-06-22T19:12:04.428864,15.80926002,.00015455,53.1584,234.2150,58.6675,301.4498,0,U,69452,999,229,.80831828E-3,.162266E-2,0
STARLINK-37500,2026-127L,2026-06-21T15:49:20.666208,15.80841267,.00006849,53.1583,239.8989,200.0658,160.0338,0,U,69453,999,211,-.61804083E-4,-.12859E-3,0
STARLINK-37575,2026-127M,2026-06-22T17:36:37.371168,15.80935572,.0000997,53.1584,234.5107,73.3045,286.8087,0,U,69454,999,228,.74422315E-3,.14918E-2,0
