STARLINK-37820          
1 69423U 26126D   26173.60857101  .00280394  00000+0  14662-2 0  9994
2 69423  97.2833  33.9204 0001453  85.0092 275.1342 15.80079718  3605
STARLINK-37822          
1 69424U 26126E   26172.34148978  .00430756  00000+0  21602-2 0  9991
2 69424  97.2831  32.5828 0002741 339.9488  20.1672 15.80613645  3407
STARLINK-37836          
1 69425U 26126F   26173.54488027  .00304950  00000+0  15893-2 0  9998
2 69425  97.2831  33.8556 0003838  77.1655 283.0041 15.80086163  3594
STARLINK-37850          
1 69426U 26126G   26173.22732039  .00662849  00000+0  30680-2 0  9994
2 69426  97.2824  33.5207 0006517 340.1697  19.9317 15.81770712  3596
STARLINK-37823          
1 69427U 26126H   26173.74110663  .00179439  00000+0  11778-2 0  9990
2 69427  97.2847  34.0462 0001221 109.1222 251.0176 15.75209369  3629
STARLINK-37834          
1 69428U 26126J   26173.74957775  .00157506  00000+0  10357-2 0  9997
2 69428  97.2842  34.0356 0001187  92.9169 267.2232 15.75231117  3625
STARLINK-37857          
1 69429U 26126K   26173.35364124  .01025795  00000+0  47531-2 0  9994
2 69429  97.2827  33.6541 0006514  17.9881 342.1617 15.81219689  3567
STARLINK-37866          
1 69430U 26126L   26173.79696859  .00487348  00000+0  24106-2 0  9995
2 69430  97.2864  34.1256 0000645 289.4833  70.6366 15.80767853  3688
STARLINK-37555          
1 69431U 26126M   26173.35341887 -.00290253  00000+0 -16130-2 0  9993
2 69431  97.2841  33.6560 0001496  57.7501 302.3912 15.80159052  3610
STARLINK-37870          
1 69432U 26126N   26173.79605907  .00220231  00000+0  11629-2 0  9993
2 69432  97.2837  34.1248 0000674 146.6187 213.5123 15.80020940  3632
STARLINK-37872          
1 69433U 26126P   26173.35238904  .02104763  00000+0  93719-2 0  9998
2 69433  97.2840  33.6574 0005017  13.5930 346.5472 15.81030413  3560
STARLINK-37815          
1 69434U 26126Q   26173.75733984  .00071615  00000+0  47659-3 0  9991
2 69434  97.2838  34.0242 0001222 100.9963 259.1439 15.75209563  3622
STARLINK-37801          
1 69435U 26126R   26173.83335648 -.00067949  00000+0 -45787-3 0  9993
2 69435  97.2849  34.1404 0001235 104.9318  45.9604 15.75212854  3697
STARLINK-37800          
1 69436U 26126S   26173.83335648 -.00238626  00000+0 -16364-2 0  9994
2 69436  97.2847  34.1339 0001489  96.5816  42.2980 15.75295412  3646
STARLINK-37792          
1 69437U 26126T   26172.59266522  .00139201  00000+0  74349-3 0  9996
2 69437  97.2830  32.8536 0000909  83.7893 276.3478 15.79984608  3493
STARLINK-37783          
1 69438U 26126U   26172.59230701  .00208708  00000+0  11079-2 0  9996
2 69438  97.2827  32.8530 0000805  66.2699 293.8653 15.79934098  3496
STARLINK-37771          
1 69439U 26126V   26173.76157459  .00135665  00000+0  89486-3 0  9994
2 69439  97.2831  34.0171 0000556  84.3399 275.7930 15.75220942  3622
STARLINK-37747          
1 69440U 26126W   26172.59248681  .00148441  00000+0  79146-3 0  9992
2 69440  97.2830  32.8541 0001949  92.3302 267.8189 15.79997131  3443
STARLINK-37629          
1 69443U 26127A   26173.83335648 -.00153372  00000+0 -10117-2 0  9997
2 69443  53.1591 234.3531 0000954  76.2943 325.5040 15.75303838  3546
STARLINK-37509          
1 69444U 26127B   26173.83335648 -.00092874  00000+0 -60781-3 0  9990
2 69444  53.1593 234.3038 0001007  85.2109 340.4925 15.75259386  3541
STARLINK-37641          
1 69445U 26127C   26173.74743773  .00160550  00000+0  79970-3 0  9998
2 69445  53.1586 234.6033 0001410  54.5766 305.5388 15.80933194  2285
STARLINK-37522          
1 69446U 26127D   26173.83335648 -.00163201  00000+0 -10782-2 0  9990
2 69446  53.1595 234.2997 0001106  77.4347 350.1220 15.75300076  3544
STARLINK-37640          
1 69447U 26127E   26173.74466523  .00217328  00000+0  10739-2 0  9998
2 69447  53.1583 234.5842 0001415  59.3538 300.7624 15.80939007  2285
STARLINK-37572          
1 69448U 26127F   26173.83335648 -.00151141  00000+0 -99721-3 0  9993
2 69448  53.1596 234.1973 0001056  86.3196  30.8858 15.75290973  3559
STARLINK-37643          
1 69449U 26127G   26173.83335648 -.00173147  00000+0 -11452-2 0  9998
2 69449  53.1596 234.2501 0001297  78.5113  12.9326 15.75305844  3552
STARLINK-37601          
1 69450U 26127H   26173.83335648 -.00165061  00000+0 -10908-2 0  9991
2 69450  53.1597 234.2455 0001062  85.2806   8.0312 15.75300161  3555
STARLINK-37578          
1 69451U 26127J   26173.80329207 -.00446376  00000+0 -29046-2 0  9997
2 69451  53.1583 234.2363 0009214 212.0694 147.9767 15.76356782  2299
STARLINK-37577          
1 69452U 26127K   26173.80005126  .00162266  00000+0  80832-3 0  9991
2 69452  53.1584 234.2150 0001545  58.6675 301.4498 15.80926002  2298
STARLINK-37500          
1 69453U 26127L   26172.65926697 -.00012859  00000+0 -61804-4 0  9992
2 69453  53.1583 239.8989 0000684 200.0658 160.0338 15.80841267  2118
STARLINK-37575          
1 69454U 26127M   26173.73376587  .00149180  00000+0  74422-3 0  9995
2 69454  53.1584 234.5107 0000997  73.3045 286.8087 15.80935572  2281
